[{"OBJECT_NAME":"STARLINK-5833","OBJECT_ID":"2023-028AJ","EPOCH":"2026-03-09T16:57:55.674432","MEAN_MOTION":14.98333799,"ECCENTRICITY":0.00030462,"INCLINATION":70.0002,"RA_OF_ASC_NODE":224.4904,"ARG_OF_PERICENTER":270.7913,"MEAN_ANOMALY":89.2897,"EPHEMERIS_TYPE":0,"CLASSIFICATION_TYPE":"U","NORAD_CAT_ID":55773,"ELEMENT_SET_NO":999,"REV_AT_EPOCH":16653,"BSTAR":5.3827402e-5,"MEAN_MOTION_DOT":5.49e-6,"MEAN_MOTION_DDOT":0},{"OBJECT_NAME":"IKONOS 2","OBJECT_ID":"1999-051A","EPOCH":"2026-03-09T15:19:40.153152","MEAN_MOTION":14.96976552,"ECCENTRICITY":0.0006412,"INCLINATION":98.1486,"RA_OF_ASC_NODE":313.4587,"ARG_OF_PERICENTER":157.8343,"MEAN_ANOMALY":202.3156,"EPHEMERIS_TYPE":0,"CLASSIFICATION_TYPE":"U","NORAD_CAT_ID":25919,"ELEMENT_SET_NO":999,"REV_AT_EPOCH":42402,"BSTAR":0.00024901,"MEAN_MOTION_DOT":2.801e-5,"MEAN_MOTION_DDOT":0}]
